{"type": "FeatureCollection", "features": [ {"type": "Feature", "properties": {"norad_id": 34058, "name": "COSMOS 2251 DEB", "group": "cosmos-2251-debris", "lat": 55.60535900726399, "lon": -154.90454520803496, "alt_km": 1160.7684653245424, "timestamp": "2025-12-11T10:53:16.283448+00:00", "meta": {"OBJECT_NAME": "COSMOS 2251 DEB", "OBJECT_ID": "1993-036JV", "EPOCH": "2025-12-11T00:35:49.461792", "MEAN_MOTION": 13.56071653, "ECCENTRICITY": 0.0378029, "INCLINATION": 73.9316, "RA_OF_ASC_NODE": 180.8922, "ARG_OF_PERICENTER": 176.4564, "MEAN_ANOMALY": 314.2193, "EPHEMERIS_TYPE": 0, "CLASSIFICATION_TYPE": "U", "NORAD_CAT_ID": 34058, "ELEMENT_SET_NO": 999, "REV_AT_EPOCH": 83119, "BSTAR": 0.00087619, "MEAN_MOTION_DOT": 9.52e-06, "MEAN_MOTION_DDOT": 0}, "tle": {"line1": "1 34058U 93036JV  25345.02487803  .00000952  00000+0  87619-3 0  9991", "line2": "2 34058  73.9316 180.8922 0378029 176.4564 314.2193 13.56071653831195"}}, "geometry": {"type": "Point", "coordinates": [-154.90454520803496, 55.60535900726399]}}, {"type": "Feature", "properties": {"norad_id": 34059, "name": "COSMOS 2251 DEB", "group": "cosmos-2251-debris", "lat": -15.034495991634468, "lon": 13.112044840693478, "alt_km": 716.0020666282826, "timestamp": "2025-12-11T10:53:16.283460+00:00", "meta": {"OBJECT_NAME": "COSMOS 2251 DEB", "OBJECT_ID": "1993-036JW", "EPOCH": "2025-12-11T00:46:27.296832", "MEAN_MOTION": 14.52930253, "ECCENTRICITY": 0.0018667, "INCLINATION": 74.0378, "RA_OF_ASC_NODE": 189.4976, "ARG_OF_PERICENTER": 266.9343, "MEAN_ANOMALY": 245.5484, "EPHEMERIS_TYPE": 0, "CLASSIFICATION_TYPE": "U", "NORAD_CAT_ID": 34059, "ELEMENT_SET_NO": 999, "REV_AT_EPOCH": 88434, "BSTAR": 0.0010745, "MEAN_MOTION_DOT": 4.412e-05, "MEAN_MOTION_DDOT": 0}, "tle": {"line1": "1 34059U 93036JW  25345.03226038  .00004412  00000+0  10745-2 0  9994", "line2": "2 34059  74.0378 189.4976 0018667 266.9343 245.5484 14.52930253884340"}}, "geometry": {"type": "Point", "coordinates": [13.112044840693478, -15.034495991634468]}}, {"type": "Feature", "properties": {"norad_id": 34061, "name": "COSMOS 2251 DEB", "group": "cosmos-2251-debris", "lat": -57.03995595268754, "lon": 111.95720760127543, "alt_km": 767.1102921886886, "timestamp": "2025-12-11T10:53:16.283471+00:00", "meta": {"OBJECT_NAME": "COSMOS 2251 DEB", "OBJECT_ID": "1993-036JY", "EPOCH": "2025-12-11T05:18:29.257344", "MEAN_MOTION": 14.40351757, "ECCENTRICITY": 0.0020487, "INCLINATION": 74.0394, "RA_OF_ASC_NODE": 266.1959, "ARG_OF_PERICENTER": 343.3569, "MEAN_ANOMALY": 132.5599, "EPHEMERIS_TYPE": 0, "CLASSIFICATION_TYPE": "U", "NORAD_CAT_ID": 34061, "ELEMENT_SET_NO": 999, "REV_AT_EPOCH": 88158, "BSTAR": 0.00052773, "MEAN_MOTION_DOT": 1.652e-05, "MEAN_MOTION_DDOT": 0}, "tle": {"line1": "1 34061U 93036JY  25345.22117196  .00001652  00000+0  52773-3 0  9993", "line2": "2 34061  74.0394 266.1959 0020487 343.3569 132.5599 14.40351757881586"}}, "geometry": {"type": "Point", "coordinates": [111.95720760127543, -57.03995595268754]}}, {"type": "Feature", "properties": {"norad_id": 34062, "name": "COSMOS 2251 DEB", "group": "cosmos-2251-debris", "lat": -3.6774238117847142, "lon": -38.37983066226556, "alt_km": 594.4074664180725, "timestamp": "2025-12-11T10:53:16.283482+00:00", "meta": {"OBJECT_NAME": "COSMOS 2251 DEB", "OBJECT_ID": "1993-036JZ", "EPOCH": "2025-12-11T04:21:36.662112", "MEAN_MOTION": 14.78556909, "ECCENTRICITY": 0.0074947, "INCLINATION": 74.0275, "RA_OF_ASC_NODE": 141.1, "ARG_OF_PERICENTER": 220.5017, "MEAN_ANOMALY": 316.5762, "EPHEMERIS_TYPE": 0, "CLASSIFICATION_TYPE": "U", "NORAD_CAT_ID": 34062, "ELEMENT_SET_NO": 999, "REV_AT_EPOCH": 88572, "BSTAR": 0.0042589, "MEAN_MOTION_DOT": 0.00032761, "MEAN_MOTION_DDOT": 0}, "tle": {"line1": "1 34062U 93036JZ  25345.18167433  .00032761  00000+0  42589-2 0  9996", "line2": "2 34062  74.0275 141.1000 0074947 220.5017 316.5762 14.78556909885721"}}, "geometry": {"type": "Point", "coordinates": [-38.37983066226556, -3.6774238117847142]}}, {"type": "Feature", "properties": {"norad_id": 34064, "name": "COSMOS 2251 DEB", "group": "cosmos-2251-debris", "lat": -24.272980512293795, "lon": 100.67221841980042, "alt_km": 767.0041193041634, "timestamp": "2025-12-11T10:53:16.283493+00:00", "meta": {"OBJECT_NAME": "COSMOS 2251 DEB", "OBJECT_ID": "1993-036KB", "EPOCH": "2025-12-11T05:38:16.358784", "MEAN_MOTION": 14.42329097, "ECCENTRICITY": 0.0022069, "INCLINATION": 74.0329, "RA_OF_ASC_NODE": 273.6596, "ARG_OF_PERICENTER": 340.2154, "MEAN_ANOMALY": 169.8008, "EPHEMERIS_TYPE": 0, "CLASSIFICATION_TYPE": "U", "NORAD_CAT_ID": 34064, "ELEMENT_SET_NO": 999, "REV_AT_EPOCH": 88120, "BSTAR": 0.00084504, "MEAN_MOTION_DOT": 2.773e-05, "MEAN_MOTION_DDOT": 0}, "tle": {"line1": "1 34064U 93036KB  25345.23491156  .00002773  00000+0  84504-3 0  9990", "line2": "2 34064  74.0329 273.6596 0022069 340.2154 169.8008 14.42329097881202"}}, "geometry": {"type": "Point", "coordinates": [100.67221841980042, -24.272980512293795]}}, {"type": "Feature", "properties": {"norad_id": 34065, "name": "COSMOS 2251 DEB", "group": "cosmos-2251-debris", "lat": -54.88630211455784, "lon": 104.51180959278396, "alt_km": 777.4066267260732, "timestamp": "2025-12-11T10:53:16.283503+00:00", "meta": {"OBJECT_NAME": "COSMOS 2251 DEB", "OBJECT_ID": "1993-036KC", "EPOCH": "2025-12-11T05:31:20.519040", "MEAN_MOTION": 14.38059888, "ECCENTRICITY": 0.0016312, "INCLINATION": 74.0359, "RA_OF_ASC_NODE": 260.9013, "ARG_OF_PERICENTER": 358.7261, "MEAN_ANOMALY": 162.7579, "EPHEMERIS_TYPE": 0, "CLASSIFICATION_TYPE": "U", "NORAD_CAT_ID": 34065, "ELEMENT_SET_NO": 999, "REV_AT_EPOCH": 88183, "BSTAR": 0.00026072, "MEAN_MOTION_DOT": 7.64e-06, "MEAN_MOTION_DDOT": 0}, "tle": {"line1": "1 34065U 93036KC  25345.23009860  .00000764  00000+0  26072-3 0  9992", "line2": "2 34065  74.0359 260.9013 0016312 358.7261 162.7579 14.38059888881833"}}, "geometry": {"type": "Point", "coordinates": [104.51180959278396, -54.88630211455784]}}, {"type": "Feature", "properties": {"norad_id": 34070, "name": "COSMOS 2251 DEB", "group": "cosmos-2251-debris", "lat": -54.340044533054126, "lon": 95.22199914537917, "alt_km": 640.698714545515, "timestamp": "2025-12-11T10:53:16.283515+00:00", "meta": {"OBJECT_NAME": "COSMOS 2251 DEB", "OBJECT_ID": "1993-036KH", "EPOCH": "2025-12-10T15:41:20.087808", "MEAN_MOTION": 14.76898862, "ECCENTRICITY": 0.0018801, "INCLINATION": 74.0008, "RA_OF_ASC_NODE": 120.3637, "ARG_OF_PERICENTER": 236.0277, "MEAN_ANOMALY": 134.6038, "EPHEMERIS_TYPE": 0, "CLASSIFICATION_TYPE": "U", "NORAD_CAT_ID": 34070, "ELEMENT_SET_NO": 999, "REV_AT_EPOCH": 88580, "BSTAR": 0.0044396, "MEAN_MOTION_DOT": 0.00031426, "MEAN_MOTION_DDOT": 0}, "tle": {"line1": "1 34070U 93036KH  25344.65370472  .00031426  00000+0  44396-2 0  9990", "line2": "2 34070  74.0008 120.3637 0018801 236.0277 134.6038 14.76898862885805"}}, "geometry": {"type": "Point", "coordinates": [95.22199914537917, -54.340044533054126]}}, {"type": "Feature", "properties": {"norad_id": 34114, "name": "COSMOS 2251 DEB", "group": "cosmos-2251-debris", "lat": -61.17101159161937, "lon": -102.44619714981492, "alt_km": 742.4287481234132, "timestamp": "2025-12-11T10:53:16.283527+00:00", "meta": {"OBJECT_NAME": "COSMOS 2251 DEB", "OBJECT_ID": "1993-036KK", "EPOCH": "2025-12-10T07:44:12.685056", "MEAN_MOTION": 14.56324745, "ECCENTRICITY": 0.004736, "INCLINATION": 74.0584, "RA_OF_ASC_NODE": 48.4107, "ARG_OF_PERICENTER": 44.1143, "MEAN_ANOMALY": 33.0003, "EPHEMERIS_TYPE": 0, "CLASSIFICATION_TYPE": "U", "NORAD_CAT_ID": 34114, "ELEMENT_SET_NO": 999, "REV_AT_EPOCH": 87766, "BSTAR": 0.0025029, "MEAN_MOTION_DOT": 0.0001125, "MEAN_MOTION_DDOT": 0}, "tle": {"line1": "1 34114U 93036KK  25344.32236904  .00011250  00000+0  25029-2 0  9999", "line2": "2 34114  74.0584  48.4107 0047360  44.1143  33.0003 14.56324745877668"}}, "geometry": {"type": "Point", "coordinates": [-102.44619714981492, -61.17101159161937]}}, {"type": "Feature", "properties": {"norad_id": 34115, "name": "COSMOS 2251 DEB", "group": "cosmos-2251-debris", "lat": -65.98035847010564, "lon": 104.54044468340838, "alt_km": 657.8297388213387, "timestamp": "2025-12-11T10:53:16.283538+00:00", "meta": {"OBJECT_NAME": "COSMOS 2251 DEB", "OBJECT_ID": "1993-036KL", "EPOCH": "2025-12-11T00:01:01.472736", "MEAN_MOTION": 14.79442076, "ECCENTRICITY": 0.0028436, "INCLINATION": 74.006, "RA_OF_ASC_NODE": 245.3704, "ARG_OF_PERICENTER": 69.4514, "MEAN_ANOMALY": 290.9708, "EPHEMERIS_TYPE": 0, "CLASSIFICATION_TYPE": "U", "NORAD_CAT_ID": 34115, "ELEMENT_SET_NO": 999, "REV_AT_EPOCH": 89386, "BSTAR": 0.0016194, "MEAN_MOTION_DOT": 0.00012161, "MEAN_MOTION_DDOT": 0}, "tle": {"line1": "1 34115U 93036KL  25345.00071149  .00012161  00000+0  16194-2 0  9999", "line2": "2 34115  74.0060 245.3704 0028436  69.4514 290.9708 14.79442076893863"}}, "geometry": {"type": "Point", "coordinates": [104.54044468340838, -65.98035847010564]}}, {"type": "Feature", "properties": {"norad_id": 34116, "name": "COSMOS 2251 DEB", "group": "cosmos-2251-debris", "lat": -21.298550449321525, "lon": 178.79688991259022, "alt_km": 718.9624651881777, "timestamp": "2025-12-11T10:53:16.283549+00:00", "meta": {"OBJECT_NAME": "COSMOS 2251 DEB", "OBJECT_ID": "1993-036KM", "EPOCH": "2025-12-11T00:06:48.806784", "MEAN_MOTION": 14.52957613, "ECCENTRICITY": 0.0012069, "INCLINATION": 74.0401, "RA_OF_ASC_NODE": 186.049, "ARG_OF_PERICENTER": 262.1153, "MEAN_ANOMALY": 248.4304, "EPHEMERIS_TYPE": 0, "CLASSIFICATION_TYPE": "U", "NORAD_CAT_ID": 34116, "ELEMENT_SET_NO": 999, "REV_AT_EPOCH": 88461, "BSTAR": 0.00098254, "MEAN_MOTION_DOT": 4.029e-05, "MEAN_MOTION_DDOT": 0}, "tle": {"line1": "1 34116U 93036KM  25345.00473156  .00004029  00000+0  98254-3 0  9996", "line2": "2 34116  74.0401 186.0490 0012069 262.1153 248.4304 14.52957613884614"}}, "geometry": {"type": "Point", "coordinates": [178.79688991259022, -21.298550449321525]}}]}